ONEWEB-0228             
1 48780U 21045P   24167.93770073 -.00000014  00000+0 -70039-4 0  9994
2 48780  87.9035  44.6980 0001944  81.7569 278.3782 13.15546801148189
